[{"OBJECT_NAME":"SAUDISAT 4","OBJECT_ID":"2014-033G","EPOCH":"2026-03-09T23:14:52.668960","MEAN_MOTION":14.79390687,"ECCENTRICITY":0.00457103,"INCLINATION":97.7413,"RA_OF_ASC_NODE":218.6273,"ARG_OF_PERICENTER":37.8064,"MEAN_ANOMALY":322.6344,"EPHEMERIS_TYPE":0,"CLASSIFICATION_TYPE":"U","NORAD_CAT_ID":40016,"ELEMENT_SET_NO":999,"REV_AT_EPOCH":63140,"BSTAR":0.00014306526,"MEAN_MOTION_DOT":1.033e-5,"MEAN_MOTION_DDOT":0},{"OBJECT_NAME":"TITAN 3C TRANSTAGE DEB","OBJECT_ID":"1965-082QJ","EPOCH":"2026-03-09T21:48:44.529408","MEAN_MOTION":14.78635581,"ECCENTRICITY":0.00241297,"INCLINATION":32.2286,"RA_OF_ASC_NODE":290.9393,"ARG_OF_PERICENTER":266.6123,"MEAN_ANOMALY":93.1768,"EPHEMERIS_TYPE":0,"CLASSIFICATION_TYPE":"U","NORAD_CAT_ID":3488,"ELEMENT_SET_NO":999,"REV_AT_EPOCH":18321,"BSTAR":0.00028216073,"MEAN_MOTION_DOT":2.157e-5,"MEAN_MOTION_DDOT":0}]
